{
  "type": "FeatureCollection",
  "features": [
    {
      "type": "Feature",
      "properties": {
        "norad_id": 41877,
        "name": "RESOURCESAT-2A",
        "group": "resource",
        "lat": 69.04358805366124,
        "lon": 26.340648265106317,
        "alt_km": 813.8743223438823,
        "timestamp": "2025-12-06T05:40:08.893885+00:00",
        "meta_object_name": "RESOURCESAT-2A",
        "meta_object_id": "2016-074A",
        "meta_epoch": "2025-12-05T07:22:38.272224",
        "meta_mean_motion": 14.21594666,
        "meta_eccentricity": 0.00011462,
        "meta_inclination": 98.7766,
        "meta_ra_of_asc_node": 49.2065,
        "meta_arg_of_pericenter": 291.8964,
        "meta_mean_anomaly": 68.2091,
        "meta_ephemeris_type": 0,
        "meta_classification_type": "U",
        "meta_norad_cat_id": 41877,
        "meta_element_set_no": 999,
        "meta_rev_at_epoch": 46675,
        "meta_bstar": 0.00017924054,
        "meta_mean_motion_dot": 3.49e-06,
        "meta_mean_motion_ddot": 0,
        "tle_line1": "1 41877U 16074A   25339.30738741  .00000349  00000+0  17924-3 0  9991",
        "tle_line2": "2 41877  98.7766  49.2065 0001146 291.8964  68.2091 14.21594666466757"
      },
      "geometry": {
        "type": "Point",
        "coordinates": [
          26.340648265106317,
          69.04358805366124
        ]
      }
    },
    {
      "type": "Feature",
      "properties": {
        "norad_id": 41948,
        "name": "CARTOSAT-2D",
        "group": "resource",
        "lat": -43.68527942960981,
        "lon": 45.003522516528136,
        "alt_km": 516.8788115162679,
        "timestamp": "2025-12-06T05:40:08.893896+00:00",
        "meta_object_name": "CARTOSAT-2D",
        "meta_object_id": "2017-008A",
        "meta_epoch": "2025-12-05T06:09:03.042144",
        "meta_mean_motion": 15.19144566,
        "meta_eccentricity": 0.00040177,
        "meta_inclination": 97.4401,
        "meta_ra_of_asc_node": 36.8683,
        "meta_arg_of_pericenter": 188.2714,
        "meta_mean_anomaly": 171.8456,
        "meta_ephemeris_type": 0,
        "meta_classification_type": "U",
        "meta_norad_cat_id": 41948,
        "meta_element_set_no": 999,
        "meta_rev_at_epoch": 48813,
        "meta_bstar": 0.00078146284,
        "meta_mean_motion_dot": 0.00016379,
        "meta_mean_motion_ddot": 0,
        "tle_line1": "1 41948U 17008A   25339.25628521  .00016379  00000+0  78146-3 0  9999",
        "tle_line2": "2 41948  97.4401  36.8683 0004017 188.2714 171.8456 15.19144566488138"
      },
      "geometry": {
        "type": "Point",
        "coordinates": [
          45.003522516528136,
          -43.68527942960981
        ]
      }
    },
    {
      "type": "Feature",
      "properties": {
        "norad_id": 42063,
        "name": "SENTINEL-2B",
        "group": "resource",
        "lat": -4.194316616372097,
        "lon": -127.86058838512758,
        "alt_km": 792.4659402841307,
        "timestamp": "2025-12-06T05:40:08.893907+00:00",
        "meta_object_name": "SENTINEL-2B",
        "meta_object_id": "2017-013A",
        "meta_epoch": "2025-12-05T06:59:35.348640",
        "meta_mean_motion": 14.30811552,
        "meta_eccentricity": 0.00011222,
        "meta_inclination": 98.5725,
        "meta_ra_of_asc_node": 51.8417,
        "meta_arg_of_pericenter": 98.0006,
        "meta_mean_anomaly": 262.1304,
        "meta_ephemeris_type": 0,
        "meta_classification_type": "U",
        "meta_norad_cat_id": 42063,
        "meta_element_set_no": 999,
        "meta_rev_at_epoch": 45691,
        "meta_bstar": 0.00014463966,
        "meta_mean_motion_dot": 3.35e-06,
        "meta_mean_motion_ddot": 0,
        "tle_line1": "1 42063U 17013A   25339.29138135  .00000335  00000+0  14464-3 0  9993",
        "tle_line2": "2 42063  98.5725  51.8417 0001122  98.0006 262.1304 14.30811552456911"
      },
      "geometry": {
        "type": "Point",
        "coordinates": [
          -127.86058838512758,
          -4.194316616372097
        ]
      }
    },
    {
      "type": "Feature",
      "properties": {
        "norad_id": 42767,
        "name": "CARTOSAT-2E",
        "group": "resource",
        "lat": -45.37581695258384,
        "lon": -149.71812583421098,
        "alt_km": 513.8882257185005,
        "timestamp": "2025-12-06T05:40:08.893917+00:00",
        "meta_object_name": "CARTOSAT-2E",
        "meta_object_id": "2017-036C",
        "meta_epoch": "2025-12-05T08:07:40.986912",
        "meta_mean_motion": 15.19207422,
        "meta_eccentricity": 0.00022993,
        "meta_inclination": 97.4568,
        "meta_ra_of_asc_node": 37.0219,
        "meta_arg_of_pericenter": 275.3343,
        "meta_mean_anomaly": 84.7629,
        "meta_ephemeris_type": 0,
        "meta_classification_type": "U",
        "meta_norad_cat_id": 42767,
        "meta_element_set_no": 999,
        "meta_rev_at_epoch": 46871,
        "meta_bstar": 0.00044136024,
        "meta_mean_motion_dot": 9.228e-05,
        "meta_mean_motion_ddot": 0,
        "tle_line1": "1 42767U 17036C   25339.33866883  .00009228  00000+0  44136-3 0  9991",
        "tle_line2": "2 42767  97.4568  37.0219 0002299 275.3343  84.7629 15.19207422468713"
      },
      "geometry": {
        "type": "Point",
        "coordinates": [
          -149.71812583421098,
          -45.37581695258384
        ]
      }
    },
    {
      "type": "Feature",
      "properties": {
        "norad_id": 42920,
        "name": "FORMOSAT-5",
        "group": "resource",
        "lat": 72.4241657353762,
        "lon": 27.43740512152318,
        "alt_km": 718.6767013609024,
        "timestamp": "2025-12-06T05:40:08.893929+00:00",
        "meta_object_name": "FORMOSAT-5",
        "meta_object_id": "2017-049A",
        "meta_epoch": "2025-12-05T06:09:26.842752",
        "meta_mean_motion": 14.50998366,
        "meta_eccentricity": 0.00102111,
        "meta_inclination": 98.246,
        "meta_ra_of_asc_node": 53.7238,
        "meta_arg_of_pericenter": 320.6466,
        "meta_mean_anomaly": 39.3986,
        "meta_ephemeris_type": 0,
        "meta_classification_type": "U",
        "meta_norad_cat_id": 42920,
        "meta_element_set_no": 999,
        "meta_rev_at_epoch": 43855,
        "meta_bstar": 0.00014027233,
        "meta_mean_motion_dot": 5.11e-06,
        "meta_mean_motion_ddot": 0,
        "tle_line1": "1 42920U 17049A   25339.25656068  .00000511  00000+0  14027-3 0  9991",
        "tle_line2": "2 42920  98.2460  53.7238 0010211 320.6466  39.3986 14.50998366438552"
      },
      "geometry": {
        "type": "Point",
        "coordinates": [
          27.43740512152318,
          72.4241657353762
        ]
      }
    },
    {
      "type": "Feature",
      "properties": {
        "norad_id": 42969,
        "name": "SENTINEL-5P",
        "group": "resource",
        "lat": 53.25194592806187,
        "lon": 110.81988725134343,
        "alt_km": 821.4513724621384,
        "timestamp": "2025-12-06T05:40:08.893940+00:00",
        "meta_object_name": "SENTINEL-5P",
        "meta_object_id": "2017-064A",
        "meta_epoch": "2025-12-05T07:05:13.536384",
        "meta_mean_motion": 14.19514571,
        "meta_eccentricity": 9.347e-05,
        "meta_inclination": 98.7773,
        "meta_ra_of_asc_node": 277.9459,
        "meta_arg_of_pericenter": 86.4768,
        "meta_mean_anomaly": 273.6515,
        "meta_ephemeris_type": 0,
        "meta_classification_type": "U",
        "meta_norad_cat_id": 42969,
        "meta_element_set_no": 999,
        "meta_rev_at_epoch": 42205,
        "meta_bstar": 0.00010816561,
        "meta_mean_motion_dot": 1.84e-06,
        "meta_mean_motion_ddot": 0,
        "tle_line1": "1 42969U 17064A   25339.29529556  .00000184  00000+0  10817-3 0  9995",
        "tle_line2": "2 42969  98.7773 277.9459 0000934  86.4768 273.6515 14.19514571422051"
      },
      "geometry": {
        "type": "Point",
        "coordinates": [
          110.81988725134343,
          53.25194592806187
        ]
      }
    },
    {
      "type": "Feature",
      "properties": {
        "norad_id": 42987,
        "name": "SKYSAT-C11",
        "group": "resource",
        "lat": 45.42000022770014,
        "lon": -54.83765112160825,
        "alt_km": 420.9204093083272,
        "timestamp": "2025-12-06T05:40:08.893950+00:00",
        "meta_object_name": "SKYSAT-C11",
        "meta_object_id": "2017-068A",
        "meta_epoch": "2025-12-05T07:21:30.570912",
        "meta_mean_motion": 15.4698732,
        "meta_eccentricity": 9.601e-05,
        "meta_inclination": 97.4138,
        "meta_ra_of_asc_node": 116.6174,
        "meta_arg_of_pericenter": 111.065,
        "meta_mean_anomaly": 249.0703,
        "meta_ephemeris_type": 0,
        "meta_classification_type": "U",
        "meta_norad_cat_id": 42987,
        "meta_element_set_no": 999,
        "meta_rev_at_epoch": 45316,
        "meta_bstar": 0.00069712678,
        "meta_mean_motion_dot": 0.00035195,
        "meta_mean_motion_ddot": 0,
        "tle_line1": "1 42987U 17068A   25339.30660383  .00035195  00000+0  69713-3 0  9994",
        "tle_line2": "2 42987  97.4138 116.6174 0000960 111.0650 249.0703 15.46987320453168"
      },
      "geometry": {
        "type": "Point",
        "coordinates": [
          -54.83765112160825,
          45.42000022770014
        ]
      }
    }
  ]
}